stk.v.12.0

BEGIN Ephemeris

# DotE file creation date: 9 Apr 2026 06:06:02.333 UTC

    NumberOfEphemerisPoints       5057

    ScenarioEpoch                 8 Apr 2026 00:44:30.451

# Satellite ID = 25544
# This is a SynCoPate ephemeris w/6x6 covariance info

# Epoch in JDate format: 2461138.53091 [UTC]
# Epoch in MJDate format: 61138.03091 [UTC]


    InterpolationMethod           Lagrange
    InterpolationSamplesM1        5
    CentralBody                   Earth
    CoordinateSystem              TEMEOfDate
    CovarianceInterpolationMethod TwoBodyQuadraticArithmeticBlending
    CovarianceFormat              LowerTriangular
    DistanceUnit                  Kilometers

# Time of first point: 8 Apr 2026 00:44:30.451

    EphemerisTimePosVel

177281.250000000000000 0.115663655668708 1.589573592204770 21.997121502816800 0.394739310925233 5.460365742961310 1.359497945597640 -0.001154125277581 -0.015969464887983 -0.003965095509830 0.000011594618420 0.000438611880847 0.006077701176617 0.001505556343067 -0.000004411591289 0.000001682194421 -0.001376594352331 -0.019044723362693 -0.004729321513624 0.000013826799077 -0.000005261391914 0.000016493762583
177375.000000000000000 0.001135246228492 0.088680005955121 22.792050882860800 0.014512309902963 3.701743760463300 0.605173687695606 -0.000063628237206 -0.016344480437765 -0.002655054197326 0.000011721775159 0.000013004538206 0.003494212385470 0.000564168764489 -0.000002505355761 0.000000538978994 -0.000077741139831 -0.019922007611736 -0.003236866580864 0.000014286747144 -0.000003053675215 0.000017418211338
177468.750000000000000 0.092743352167464 -1.468676381974460 23.456378707836400 -0.115587940104980 1.847745395910150 0.149439209180710 0.001040602905090 -0.016618725622379 -0.001309103350663 0.000011775166394 -0.000050173283579 0.000791714237322 0.000058918610802 -0.000000560925713 0.000000030193205 0.001295546798848 -0.020692693352416 -0.001630681415048 0.000014660879104 -0.000000698088497 0.000018259247958
177562.500000000000000 0.392299081540676 -3.039764919149160 23.601250585470100 0.013696076067605 -0.105343770579417 0.004336700610717 0.002127839233565 -0.016519820401643 0.000074242467709 0.000011564099031 0.000258514315027 -0.002011857519316 0.000005526057581 0.000001407800035 0.000000174974565 0.002706237459302 -0.021011267771355 0.000093760984263 0.000014707101627 0.000001791176518 0.000018710053267
177656.250000000000000 0.894025803855332 -4.553591998009880 23.213775028330800 0.406272287442350 -2.070222915172630 0.188527266467282 0.003148129597165 -0.016047676309914 0.001432139817942 0.000011094920882 0.000939157365433 -0.004790814045652 0.000423890849680 0.000003311101099 0.000000992018478 0.004091650376717 -0.020857799269512 0.001860722703070 0.000014419233417 0.000004304456162 0.000018745575021
177750.000000000000000 1.582708652297460 -5.940067865592890 22.305216135593000 1.054024152033300 -3.956922253580370 0.705954743604846 0.004053373100636 -0.015219317471200 0.002701377855263 0.000010385942281 0.001974758254461 -0.007417517221115 0.001312707044920 0.000005060048424 0.000002469627864 0.005388739066706 -0.020233542047343 0.003590666281093 0.000013806242286 0.000006728296313 0.000018359191045
177843.750000000000000 2.412724947360140 -7.070474374535130 20.727330761102100 1.918967068524950 -5.624434791192000 1.530401643244630 0.004757057128357 -0.013944081615154 0.003785754240563 0.000009382606552 0.003302585897085 -0.009683250721528 0.002624744188940 0.000006513065412 0.000004526269010 0.006477696991876 -0.018987986760872 0.005154394204673 0.000012774795205 0.000008870372412 0.000017399897965
177937.500000000000000 3.330536712714640 -7.872429980040570 18.613274195137000 2.944814736740890 -6.961398788385530 2.608067555703010 0.005214022729400 -0.012326317959659 0.004612548121110 0.000008165227771 0.004836608654418 -0.011436620490233 0.004274922877538 0.000007572493960 0.000007029078236 0.007287764086581 -0.017229196417290 0.006446415028355 0.000011411051851 0.000010586080300 0.000015953823479
178031.250000000000000 4.305811840363100 -8.359213354127780 16.232192268682400 4.091972799130910 -7.944521415743030 3.893203549336790 0.005437911253040 -0.010557852914700 0.005170349242751 0.000006869948904 0.006519647276592 -0.012660742485542 0.006194788105127 0.000008233919439 0.000009876701699 0.007828120476504 -0.015199020175900 0.007442315111303 0.000009887719480 0.000011855220361 0.000014237996949
178125.000000000000000 5.293642836228400 -8.511964470555250 13.689855667021800 5.306983653217170 -8.533591697184110 5.324948517312260 0.005421062759826 -0.008716920875525 0.005437310618942 0.000005553793507 0.008273413388762 -0.013306391963936 0.008293697466053 0.000008472290092 0.000012935056804 0.008076956839914 -0.012988141819977 0.008100529689722 0.000008272581967 0.000012625438092 0.000012329480211
178218.750000000000000 6.248960687349680 -8.326895844846870 11.098226802507000 6.533829023913380 -8.706375833391180 6.836410710104750 0.005166644134846 -0.006884207957551 0.005404810889232 0.000004274114091 0.010017171045546 -0.013350678628578 0.010473811909832 0.000008281748099 0.000016061878306 0.008025696094368 -0.010694437008024 0.008395001606006 0.000006636831849 0.000012867237781 0.000010313188215
178312.500000000000000 7.150238703226210 -7.839265138147450 8.596769223813690 7.739902594170650 -8.485365303498900 8.383044027915820 0.004702106422559 -0.005154363793907 0.005092535773204 0.000003094646667 0.011708022885001 -0.012838273219398 0.012674162895221 0.000007698911421 0.000019175089265 0.007703817042782 -0.008445618392528 0.008342703620514 0.000005067354011 0.000012616534953 0.000008305662276
178406.250000000000000 7.959408112705760 -7.062437809484790 6.268406227976800 8.875287338415780 -7.874449725777330 9.901519207622480 0.004041801409855 -0.003585187319833 0.004509524300483 0.000002055034168 0.013275460306824 -0.011780881706314 0.014804303484700 0.000006740943837 0.000022146092713 0.007118294515356 -0.006315092016340 0.007940992294447 0.000003615896405 0.000011874884972 0.000006371249532
178500.000000000000000 8.626975377968210 -6.012498203438390 4.192103793203220 9.875340040691290 -6.881591236709440 11.309430312835200 0.003204026946621 -0.002231674662079 0.003670235477008 0.000001192658201 0.014627258135232 -0.010195248158959 0.016745817811319 0.000005432308772 0.000024805119993 0.006276635794386 -0.004373059554873 0.007188476013293 0.000002332304143 0.000010644817885 0.000004571539610
178593.750000000000000 9.123329316895260 -4.735949333804800 2.460172782218380 10.695619384572500 -5.550869915635280 12.544077510033800 0.002225929794242 -0.001153980679531 0.002611992283457 0.000000545828942 0.015703298509860 -0.008151917855110 0.018412185536247 0.000003831291527 0.000027033575014 0.005216125208879 -0.002706016405879 0.006118553260901 0.000001273743491 0.000008981058251 0.000002986818195
178687.500000000000000 9.426450080339910 -3.289381745503940 1.149637306907430 11.299665037894500 -3.941437584250560 13.550456265521300 0.001150904215778 -0.000399994952514 0.001381888014283 0.000000143258697 0.016455718040181 -0.005741864502705 0.019729124423974 0.000002009232907 0.000028732034704 0.003983804681128 -0.001388229872994 0.004778803422727 0.000000487355664 0.000006957719454 0.000001687795672
178781.250000000000000 9.638152899360160 -1.756740280067690 0.322190110076995 11.802985605501100 -2.149346971024780 14.459508735113800 0.000026873106198 -0.000003227631029 0.000034917921149 0.000000002798385 0.017057080994058 -0.003107819433395 0.020892371483812 0.000000047684363 0.000030192956077 0.002668589655949 -0.000484291731695 0.003271086557505 0.000000008170985 0.000004726136180 0.000000742573645
178875.000000000000000 9.707424865600490 -0.148739494189127 0.004572143253089 12.139606887016300 -0.183628325099014 15.186723894592700 -0.001132501686822 0.000019002969413 -0.001414596353792 0.000000134831847 0.017414346540229 -0.000264780300440 0.021782327963558 -0.000002031611029 0.000031247332809 0.001272471323326 -0.000017277916405 0.001594061723035 -0.000000148006349 0.000002286201606 0.000000169984714
178968.750000000000000 9.558110589640280 1.487272247511570 0.234139567389178 12.206112388997500 1.902141020772620 15.593401945598200 -0.002284202789344 -0.000353896801139 -0.002915803235495 0.000000548593447 0.017382860376478 0.002707892433229 0.022204245065176 -0.000004154431231 0.000031622053978 -0.000174268051320 -0.000024892767387 -0.000220195608209 0.000000041797164 -0.000000313558165 0.000000005797025
179062.500000000000000 9.192806612999700 3.076490973044330 1.032878262829660 11.994148687807600 4.017348965139440 15.654970711390600 -0.003375084877809 -0.001128227913914 -0.004402875539420 0.000001241906240 0.016956379519496 0.005678914623521 0.022129881081658 -0.000006226163949 0.000031286716270 -0.001605978465839 -0.000535368592310 -0.002093546469329 0.000000589509512 -0.000002959259459 0.000000282603970
179156.250000000000000 8.624232787840560 4.543323092196040 2.397536488365970 11.507979436783000 6.066470944389450 15.361973113028700 -0.004352704713363 -0.002292169300693 -0.005808055430873 0.000002199741482 0.016146754502509 0.008511876560751 0.021552968866280 -0.000008150794815 0.000030242703418 -0.002955087730883 -0.001554988025143 -0.003942024234035 0.000001491146554 -0.000005530333610 0.000001014064713
179250.000000000000000 7.736750153934200 5.713247146992860 4.224234976707070 10.577114326402100 7.815512755026340 14.466482489230500 -0.005075903282135 -0.003748099895648 -0.006940038301809 0.000003333311425 0.014721003027238 0.010878197722489 0.020133463905856 -0.000009660487815 0.000028024051663 -0.004082757344610 -0.003013678514986 -0.005581220479480 0.000002678274172 -0.000007767062181 0.000002155620593
End Ephemeris

